[{"airport": "\u9996\u90fd", "city": "\u5317\u4eac", "enAirport": "", "match": "\u5317\u4eac \u9996\u90fd|beijingshoudu|PEK", "pinyin": "beijingshoudu", "tcode": "PEK", "ICAO": "ZBAA"}, {"airport": "\u8679\u6865", "city": "\u4e0a\u6d77", "enAirport": "", "match": "\u4e0a\u6d77 \u8679\u6865|shanghaihongqiao|SHA", "pinyin": "shanghaihongqiao", "tcode": "SHA", "ICAO": "ZSSS"}, {"airport": "\u6d66\u4e1c", "city": "\u4e0a\u6d77", "enAirport": "", "match": "\u4e0a\u6d77 \u6d66\u4e1c|shanghaipudong|PVG", "pinyin": "shanghaipudong", "tcode": "PVG", "ICAO": "ZSPD"}, {"airport": "\u767d\u4e91", "city": "\u5e7f\u5dde", "enAirport": "", "match": "\u5e7f\u5dde \u767d\u4e91|guangzhoubaiyun|CAN", "pinyin": "guangzhoubaiyun", "tcode": "CAN", "ICAO": "ZGGG"}, {"airport": "\u5b9d\u5b89", "city": "\u6df1\u5733", "enAirport": "", "match": "\u6df1\u5733 \u5b9d\u5b89|shenzhenbaoan|SZX", "pinyin": "shenzhenbaoan", "tcode": "SZX", "ICAO": "ZGSZ"}, {"airport": "\u53cc\u6d41", "city": "\u6210\u90fd", "enAirport": "", "match": "\u6210\u90fd \u53cc\u6d41|chengdushuangliu|CTU", "pinyin": "chengdushuangliu", "tcode": "CTU", "ICAO": "ZUUU"}, {"airport": "\u957f\u6c34", "city": "\u6606\u660e", "enAirport": "", "match": "\u6606\u660e \u957f\u6c34|kunmingchangshui|KMG", "pinyin": "kunmingchangshui", "tcode": "KMG", "ICAO": "ZPPP"}, {"airport": "\u54b8\u9633", "city": "\u897f\u5b89", "enAirport": "", "match": "\u897f\u5b89 \u54b8\u9633|xianxianyang|XIY", "pinyin": "xianxianyang", "tcode": "XIY", "ICAO": "ZLXY"}, {"airport": "\u8427\u5c71", "city": "\u676d\u5dde", "enAirport": "", "match": "\u676d\u5dde \u8427\u5c71|hangzhouxiaoshan|HGH", "pinyin": "hangzhouxiaoshan", "tcode": "HGH", "ICAO": "ZSHC"}, {"airport": "\u6c5f\u5317", "city": "\u91cd\u5e86", "enAirport": "", "match": "\u91cd\u5e86 \u6c5f\u5317|chongqingjiangbei|CKG", "pinyin": "chongqingjiangbei", "tcode": "CKG", "ICAO": "ZUCK"}, {"airport": "\u5357\u82d1", "city": "\u5317\u4eac", "enAirport": "", "match": "\u5317\u4eac \u5357\u82d1|beijingnanyuan|NAY", "pinyin": "beijingnanyuan", "tcode": "NAY", "ICAO": "ZBNY"}, {"airport": "\u66f2\u961c", "city": "\u6d4e\u5b81", "enAirport": "", "match": "\u6d4e\u5b81 \u66f2\u961c|jiningqufu|JNG", "pinyin": "jiningqufu", "tcode": "JNG", "ICAO": "ZLJN"}, {"airport": "\u8862\u5dde", "city": "\u8862\u5dde", "enAirport": "", "match": "\u8862\u5dde \u8862\u5dde|quzhou|JUZ", "pinyin": "quzhou", "tcode": "JUZ", "ICAO": "ZSJU"}, {"airport": "\u5e93\u8f66", "city": "\u5e93\u8f66", "enAirport": "", "match": "\u5e93\u8f66 \u5e93\u8f66|kuche|KCA", "pinyin": "kuche", "tcode": "KCA", "ICAO": "ZWKC"}, {"airport": "\u9f99\u6d1e\u5821", "city": "\u8d35\u9633", "enAirport": "", "match": "\u8d35\u9633 \u9f99\u6d1e\u5821|guiyanglongdongbao|KWE", "pinyin": "guiyanglongdongbao", "tcode": "KWE", "ICAO": "ZUGY"}, {"airport": "\u4e2d\u5ddd", "city": "\u5170\u5dde", "enAirport": "", "match": "\u5170\u5dde \u4e2d\u5ddd|lanzhouzhongchuan|LHW", "pinyin": "lanzhouzhongchuan", "tcode": "LHW", "ICAO": "ZLLL"}, {"airport": "\u4e09\u4e49", "city": "\u4e3d\u6c5f", "enAirport": "", "match": "\u4e3d\u6c5f \u4e09\u4e49|lijiangsanyi|LJG", "pinyin": "lijiangsanyi", "tcode": "LJG", "ICAO": "ZPLJ"}, {"airport": "\u8d21\u560e", "city": "\u62c9\u8428", "enAirport": "", "match": "\u62c9\u8428 \u8d21\u560e|lasagongga|LXA", "pinyin": "lasagongga", "tcode": "LXA", "ICAO": "ZULS"}, {"airport": "\u5317\u90ca", "city": "\u6d1b\u9633", "enAirport": "", "match": "\u6d1b\u9633 \u5317\u90ca|luoyangbeijiao|LYA", "pinyin": "luoyangbeijiao", "tcode": "LYA", "ICAO": "ZHLY"}, {"airport": "\u6cad\u57e0\u5cad", "city": "\u4e34\u6c82", "enAirport": "", "match": "\u4e34\u6c82 \u6cad\u57e0\u5cad|linyishubuling|LYI", "pinyin": "linyishubuling", "tcode": "LYI", "ICAO": "ZSLY"}, {"airport": "\u767d\u83b2", "city": "\u67f3\u5dde", "enAirport": "", "match": "\u67f3\u5dde \u767d\u83b2|liuzhoubailian|LZH", "pinyin": "liuzhoubailian", "tcode": "LZH", "ICAO": "ZGZH"}, {"airport": "\u7984\u53e3", "city": "\u5357\u4eac", "enAirport": "", "match": "\u5357\u4eac \u7984\u53e3|nanjinglukou|NKG", "pinyin": "nanjinglukou", "tcode": "NKG", "ICAO": "ZSNJ"}, {"airport": "\u5174\u4e1c", "city": "\u5357\u901a", "enAirport": "", "match": "\u5357\u901a \u5174\u4e1c|nantongxingdong|NTG", "pinyin": "nantongxingdong", "tcode": "NTG", "ICAO": "ZSNT"}, {"airport": "\u8428\u5c14\u56fe", "city": "\u5927\u5e86", "enAirport": "", "match": "\u5927\u5e86 \u8428\u5c14\u56fe|daqingsaertu|DQA", "pinyin": "daqingsaertu", "tcode": "DQA", "ICAO": "ZYDQ"}, {"airport": "\u7530\u9633", "city": "\u767e\u8272", "enAirport": "", "match": "\u767e\u8272 \u7530\u9633|baisetianyang|AEB", "pinyin": "baisetianyang", "tcode": "AEB", "ICAO": "ZGBS"}, {"airport": "\u963f\u62c9\u5c71\u53e3", "city": "\u535a\u4e50", "enAirport": "", "match": "\u535a\u4e50 \u963f\u62c9\u5c71\u53e3|bolealashankou|BPL", "pinyin": "bolealashankou", "tcode": "BPL", "ICAO": "ZWBL"}, {"airport": "\u8d5b\u4e4c\u82cf", "city": "\u4e8c\u8fde\u6d69\u7279", "enAirport": "", "match": "\u4e8c\u8fde\u6d69\u7279 \u8d5b\u4e4c\u82cf|erlianhaote|ERL", "pinyin": "erlianhaote", "tcode": "ERL", "ICAO": "ZBER"}, {"airport": "\u76d8\u9f99", "city": "\u5e7f\u5143", "enAirport": "", "match": "\u5e7f\u5143 \u76d8\u9f99|guangyuanpanlong|GYS", "pinyin": "guangyuanpanlong", "tcode": "GYS", "ICAO": "ZUGU"}, {"airport": "\u516d\u76d8\u5c71", "city": "\u56fa\u539f", "enAirport": "", "match": "\u56fa\u539f \u516d\u76d8\u5c71|guyuanliupanshan|GYU", "pinyin": "guyuanliupanshan", "tcode": "GYU", "ICAO": "ZLGY"}, {"airport": "\u9ece\u5e73", "city": "\u9ece\u5e73", "enAirport": "", "match": "\u9ece\u5e73 \u9ece\u5e73|liping|HZH", "pinyin": "liping", "tcode": "HZH", "ICAO": "ZUNP"}, {"airport": "\u821f\u767d", "city": "\u9ed4\u6c5f", "enAirport": "", "match": "\u9ed4\u6c5f \u821f\u767d|qianjiangzhoubai|JIQ", "pinyin": "qianjiangzhoubai", "tcode": "JIQ", "ICAO": "ZUQJ"}, {"airport": "\u5eb7\u5b9a", "city": "\u7518\u5b5c", "enAirport": "", "match": "\u7518\u5b5c \u5eb7\u5b9a|ganzikangding|KGT", "pinyin": "ganzikangding", "tcode": "KGT", "ICAO": "ZUKD"}, {"airport": "\u5580\u7eb3\u65af", "city": "\u5e03\u5c14\u6d25", "enAirport": "", "match": "\u5e03\u5c14\u6d25 \u5580\u7eb3\u65af|buerjinkanasi|KJI", "pinyin": "buerjinkanasi", "tcode": "KJI", "ICAO": "ZWKN"}, {"airport": "\u6797\u90fd", "city": "\u4f0a\u6625", "enAirport": "", "match": "\u4f0a\u6625 \u6797\u90fd|yichunlindu|LDS", "pinyin": "yichunlindu", "tcode": "LDS", "ICAO": "ZYLD"}, {"airport": "\u8354\u6ce2", "city": "\u9ed4\u5357\u5dde", "enAirport": "", "match": "\u9ed4\u5357\u5dde \u8354\u6ce2|qiannanzhoulipo|LLB", "pinyin": "qiannanzhoulipo", "tcode": "LLB", "ICAO": "ZULB"}, {"airport": "\u957f\u767d\u5c71", "city": "\u767d\u5c71", "enAirport": "", "match": "\u767d\u5c71 \u957f\u767d\u5c71|baishanchangbaishan|NBS", "pinyin": "baishanchangbaishan", "tcode": "NBS", "ICAO": "ZYBS"}, {"airport": "\u6606\u838e", "city": "\u963f\u91cc", "enAirport": "", "match": "\u963f\u91cc \u6606\u838e|alikunsha|NGQ", "pinyin": "alikunsha", "tcode": "NGQ", "ICAO": "ZUAL"}, {"airport": "\u8bb8\u5bb6\u576a", "city": "\u6069\u65bd", "enAirport": "", "match": "\u6069\u65bd \u8bb8\u5bb6\u576a|enshixujiaping|ENH", "pinyin": "enshixujiaping", "tcode": "ENH", "ICAO": "ZHES"}, {"airport": "\u9102\u5c14\u591a\u65af", "city": "\u9102\u5c14\u591a\u65af", "enAirport": "", "match": "\u9102\u5c14\u591a\u65af \u9102\u5c14\u591a\u65af|eerduosi|DSN", "pinyin": "eerduosi", "tcode": "DSN", "ICAO": "ZBDS"}, {"airport": "\u666e\u9640\u5c71", "city": "\u821f\u5c71", "enAirport": "", "match": "\u821f\u5c71 \u666e\u9640\u5c71|zhoushanputuoshan|HSN", "pinyin": "zhoushanputuoshan", "tcode": "HSN", "ICAO": "ZSZS"}, {"airport": "\u5173\u516c", "city": "\u8fd0\u57ce", "enAirport": "", "match": "\u8fd0\u57ce \u5173\u516c|yunchengzhangxiao|YCU", "pinyin": "yunchengzhangxiao", "tcode": "YCU", "ICAO": "ZBYC"}, {"airport": "\u5730\u7a9d\u5821", "city": "\u4e4c\u9c81\u6728\u9f50", "enAirport": "", "match": "\u4e4c\u9c81\u6728\u9f50 \u5730\u7a9d\u5821|wulumuqidiwobao|URC", "pinyin": "wulumuqidiwobao", "tcode": "URC", "ICAO": "ZWWW"}, {"airport": "\u9ec4\u82b1", "city": "\u957f\u6c99", "enAirport": "", "match": "\u957f\u6c99 \u9ec4\u82b1|changshahuanghuo|CSX", "pinyin": "changshahuanghuo", "tcode": "CSX", "ICAO": "ZGHA"}, {"airport": "\u91d1\u5ddd", "city": "\u91d1\u660c", "enAirport": "", "match": "\u91d1\u660c \u91d1\u5ddd|jinzhou|JIC", "pinyin": "jinzhou", "tcode": "JIC", "ICAO": "ZLJC"}, {"airport": "\u897f\u90ca", "city": "\u6ee1\u6d32\u91cc", "enAirport": "", "match": "\u6ee1\u6d32\u91cc \u897f\u90ca|manzhoulixijiao|NZH", "pinyin": "manzhoulixijiao", "tcode": "NZH", "ICAO": "ZBMZ"}, {"airport": "\u9a7c\u5cf0", "city": "\u817e\u51b2", "enAirport": "", "match": "\u817e\u51b2 \u9a7c\u5cf0|tengchongtuofeng|TCZ", "pinyin": "tengchongtuofeng", "tcode": "TCZ", "ICAO": "ZPTC"}, {"airport": "\u90af\u90f8", "city": "\u90af\u90f8", "enAirport": "", "match": "\u90af\u90f8 \u90af\u90f8|handan|HDG", "pinyin": "handan", "tcode": "HDG", "ICAO": "ZBHD"}, {"airport": "\u767d\u5854", "city": "\u547c\u548c\u6d69\u7279", "enAirport": "", "match": "\u547c\u548c\u6d69\u7279 \u767d\u5854|huhehaote|HET", "pinyin": "huhehaote", "tcode": "HET", "ICAO": "ZBHH"}, {"airport": "\u65b0\u6865", "city": "\u5408\u80a5", "enAirport": "", "match": "\u5408\u80a5 \u65b0\u6865|hefeiluogang|HFE", "pinyin": "hefeiluogang", "tcode": "HFE", "ICAO": "ZSOF"}, {"airport": "\u4e1c\u5c71", "city": "\u6d77\u62c9\u5c14", "enAirport": "", "match": "\u6d77\u62c9\u5c14 \u4e1c\u5c71|hailaerdongshang|HLD", "pinyin": "hailaerdongshang", "tcode": "HLD", "ICAO": "ZBLA"}, {"airport": "\u54c8\u5bc6", "city": "\u54c8\u5bc6", "enAirport": "", "match": "\u54c8\u5bc6 \u54c8\u5bc6|hami|HMI", "pinyin": "hami", "tcode": "HMI", "ICAO": "ZWHM"}, {"airport": "\u970d\u5766", "city": "\u548c\u7530", "enAirport": "", "match": "\u548c\u7530 \u970d\u5766|hetianhuodan|HTN", "pinyin": "hetianhuodan", "tcode": "HTN", "ICAO": "ZWTN"}, {"airport": "\u8def\u6865", "city": "\u53f0\u5dde", "enAirport": "", "match": "\u53f0\u5dde \u8def\u6865|taizhouluqiao|HYN", "pinyin": "taizhouluqiao", "tcode": "HYN", "ICAO": "ZSLQ"}, {"airport": "\u4e14\u672b", "city": "\u4e14\u672b", "enAirport": "", "match": "\u4e14\u672b \u4e14\u672b|qiemo|IQM", "pinyin": "qiemo", "tcode": "IQM", "ICAO": "ZWCM"}, {"airport": "\u5e86\u9633", "city": "\u5e86\u9633", "enAirport": "", "match": "\u5e86\u9633 \u5e86\u9633|qingyang|IQN", "pinyin": "qingyang", "tcode": "IQN", "ICAO": "ZLQY"}, {"airport": "\u7f57\u5bb6", "city": "\u666f\u5fb7\u9547", "enAirport": "", "match": "\u666f\u5fb7\u9547 \u7f57\u5bb6|jingdezhenluojia|JDZ", "pinyin": "jingdezhenluojia", "tcode": "JDZ", "ICAO": "ZSJD"}, {"airport": "\u897f\u53cc\u7248\u7eb3", "city": "\u666f\u6d2a", "enAirport": "", "match": "\u666f\u6d2a \u897f\u53cc\u7248\u7eb3|jinghong|JHG", "pinyin": "jinghong", "tcode": "JHG", "ICAO": "ZPJH"}, {"airport": "\u664b\u6c5f", "city": "\u6cc9\u5dde", "enAirport": "", "match": "\u6cc9\u5dde \u664b\u6c5f|quanzhoujinjiang|JJN", "pinyin": "quanzhoujinjiang", "tcode": "JJN", "ICAO": "ZSQZ"}, {"airport": "\u5c0f\u5cad\u5b50", "city": "\u9526\u5dde", "enAirport": "", "match": "\u9526\u5dde \u5c0f\u5cad\u5b50|jinzhouxiaolingzi|JNZ", "pinyin": "jinzhouxiaolingzi", "tcode": "JNZ", "ICAO": "ZYJZ"}, {"airport": "\u660c\u5317", "city": "\u5357\u660c", "enAirport": "", "match": "\u5357\u660c \u660c\u5317|nanchangchangbei|KHN", "pinyin": "nanchangchangbei", "tcode": "KHN", "ICAO": "ZSCN"}, {"airport": "\u514b\u62c9\u739b\u4f9d", "city": "\u514b\u62c9\u739b\u4f9d", "enAirport": "", "match": "\u514b\u62c9\u739b\u4f9d \u514b\u62c9\u739b\u4f9d|kalamayi|KRY", "pinyin": "kalamayi", "tcode": "KRY", "ICAO": "ZWKM"}, {"airport": "\u4e24\u6c5f", "city": "\u6842\u6797", "enAirport": "", "match": "\u6842\u6797 \u4e24\u6c5f|guilinliangjiang|KWL", "pinyin": "guilinliangjiang", "tcode": "KWL", "ICAO": "ZGKL"}, {"airport": "\u8292\u5e02", "city": "\u5fb7\u5b8f", "enAirport": "", "match": "\u5fb7\u5b8f \u8292\u5e02|dehongmangshi|LUM", "pinyin": "dehongmangshi", "tcode": "LUM", "ICAO": "ZPLX"}, {"airport": "\u84dd\u7530", "city": "\u6cf8\u5dde", "enAirport": "", "match": "\u6cf8\u5dde \u84dd\u7530|luzhouliantian|LZO", "pinyin": "luzhouliantian", "tcode": "LZO", "ICAO": "ZULZ"}, {"airport": "\u6d77\u6d6a ", "city": "\u7261\u4e39\u6c5f", "enAirport": "", "match": "\u7261\u4e39\u6c5f \u6d77\u6d6a |mudanjianghailang|MDG", "pinyin": "mudanjianghailang", "tcode": "MDG", "ICAO": "ZYMD"}, {"airport": "\u957f\u5c97\u5c8c", "city": "\u6885\u53bf", "enAirport": "", "match": "\u6885\u53bf \u957f\u5c97\u5c8c|meixianchanggangji|MXZ", "pinyin": "meixianchanggangji", "tcode": "MXZ", "ICAO": "ZGMX"}, {"airport": "\u4e09\u5bb6\u5b50", "city": "\u9f50\u9f50\u54c8\u5c14", "enAirport": "", "match": "\u9f50\u9f50\u54c8\u5c14 \u4e09\u5bb6\u5b50|qiqihaersanjiazi|NDG", "pinyin": "qiqihaersanjiazi", "tcode": "NDG", "ICAO": "ZYQQ"}, {"airport": "\u53e4\u83b2 ", "city": "\u6f20\u6cb3", "enAirport": "", "match": "\u6f20\u6cb3 \u53e4\u83b2 |mohegulian|OHE", "pinyin": "mohegulian", "tcode": "OHE", "ICAO": "ZYMH"}, {"airport": "\u6b63\u5b9a", "city": "\u77f3\u5bb6\u5e84", "enAirport": "", "match": "\u77f3\u5bb6\u5e84 \u6b63\u5b9a|shijiazhuangzhengding|SJW", "pinyin": "shijiazhuangzhengding", "tcode": "SJW", "ICAO": "ZBSJ"}, {"airport": "\u601d\u8305", "city": "\u666e\u6d31", "enAirport": "", "match": "\u666e\u6d31 \u601d\u8305|puersimao|SYM", "pinyin": "puersimao", "tcode": "SYM", "ICAO": "ZPSM"}, {"airport": "\u901a\u8fbd", "city": "\u901a\u8fbd", "enAirport": "", "match": "\u901a\u8fbd \u901a\u8fbd|tongliao|TGO", "pinyin": "tongliao", "tcode": "TGO", "ICAO": "ZBTL"}, {"airport": "\u5927\u6c34\u6cca", "city": "\u5a01\u6d77", "enAirport": "", "match": "\u5a01\u6d77 \u5927\u6c34\u6cca|weihaidashuipo|WEH", "pinyin": "weihaidashuipo", "tcode": "WEH", "ICAO": "ZSWH"}, {"airport": "\u82cf\u5357\u7855\u653e", "city": "\u65e0\u9521", "enAirport": "", "match": "\u65e0\u9521 \u82cf\u5357\u7855\u653e|wuxisunanshuofang|WUX", "pinyin": "wuxisunanshuofang", "tcode": "WUX", "ICAO": "ZSWX"}, {"airport": "\u8944\u9633", "city": "\u8944\u9633", "enAirport": "", "match": "\u8944\u9633 \u8944\u9633|xiangyangjichang|XFN", "pinyin": "xiangyangjichang", "tcode": "XFN", "ICAO": "ZHXF"}, {"airport": "\u89c2\u97f3", "city": "\u5f90\u5dde", "enAirport": "", "match": "\u5f90\u5dde \u89c2\u97f3|xuzhouguanyin|XUZ", "pinyin": "xuzhouguanyin", "tcode": "XUZ", "ICAO": "ZSXZ"}, {"airport": "\u671d\u9633\u5ddd", "city": "\u5ef6\u5409", "enAirport": "", "match": "\u5ef6\u5409 \u671d\u9633\u5ddd|yanjichaoyangchuan|YNJ", "pinyin": "yanjichaoyangchuan", "tcode": "YNJ", "ICAO": "ZYYJ"}, {"airport": "\u6e5b\u6c5f", "city": "\u6e5b\u6c5f", "enAirport": "", "match": "\u6e5b\u6c5f \u6e5b\u6c5f|zhanjiang|ZHA", "pinyin": "zhanjiang", "tcode": "ZHA", "ICAO": "ZGZJ"}, {"airport": "\u65b0\u821f", "city": "\u9075\u4e49", "enAirport": "", "match": "\u9075\u4e49 \u65b0\u821f|zunyixinzhou|ZYI", "pinyin": "zunyixinzhou", "tcode": "ZYI", "ICAO": "ZUZY"}, {"airport": "\u4e09\u5ce1", "city": "\u5b9c\u660c", "enAirport": "", "match": "\u5b9c\u660c \u4e09\u5ce1|yichangsanxia|YIH", "pinyin": "yichangsanxia", "tcode": "YIH", "ICAO": "ZHYC"}, {"airport": "\u83b1\u5c71", "city": "\u70df\u53f0", "enAirport": "", "match": "\u70df\u53f0 \u83b1\u5c71|yantailaishan|YNT", "pinyin": "yantailaishan", "tcode": "YNT", "ICAO": "ZSYT"}, {"airport": "\u738b\u6751", "city": "\u957f\u6cbb", "enAirport": "", "match": "\u957f\u6cbb \u738b\u6751|changzhiwangcun|CIH", "pinyin": "changzhiwangcun", "tcode": "CIH", "ICAO": "ZBCZ"}, {"airport": "\u6cb3\u5e02", "city": "\u8fbe\u5dde", "enAirport": "", "match": "\u8fbe\u5dde \u6cb3\u5e02|dazhouheshi|DAX", "pinyin": "dazhouheshi", "tcode": "DAX", "ICAO": "ZUDX"}, {"airport": "\u7f8e\u5170", "city": "\u6d77\u53e3", "enAirport": "", "match": "\u6d77\u53e3 \u7f8e\u5170|haikoumeilan|HAK", "pinyin": "haikoumeilan", "tcode": "HAK", "ICAO": "ZJHK"}, {"airport": "\u9ec4\u9f99", "city": "\u4e5d\u5be8\u6c9f", "enAirport": "", "match": "\u4e5d\u5be8\u6c9f \u9ec4\u9f99|jiuzhaihuanglong|JZH", "pinyin": "jiuzhaihuanglong", "tcode": "JZH", "ICAO": "ZUJZ"}, {"airport": "\u5357\u90ca", "city": "\u7ef5\u9633", "enAirport": "", "match": "\u7ef5\u9633 \u5357\u90ca|mianyangnanjiao|MIG", "pinyin": "mianyangnanjiao", "tcode": "MIG", "ICAO": "ZUMY"}, {"airport": "\u9f99\u5609", "city": "\u957f\u6625", "enAirport": "", "match": "\u957f\u6625 \u9f99\u5609|changchunlongjia|CGQ", "pinyin": "changchunlongjia", "tcode": "CGQ", "ICAO": "ZYCC"}, {"airport": "\u7389\u9f99", "city": "\u8d64\u5cf0", "enAirport": "", "match": "\u8d64\u5cf0 \u7389\u9f99|chifengyulong|CIF", "pinyin": "chifengyulong", "tcode": "CIF", "ICAO": "ZBCF"}, {"airport": "\u5927\u957f\u5c71\u5c9b", "city": "\u957f\u6d77", "enAirport": "", "match": "\u957f\u6d77 \u5927\u957f\u5c71\u5c9b|changhaidachangdao|CNI", "pinyin": "changhaidachangdao", "tcode": "CNI", "ICAO": "ZYCH"}, {"airport": "\u5954\u725b", "city": "\u5e38\u5dde", "enAirport": "", "match": "\u5e38\u5dde \u5954\u725b|changzhoubenniu|CZX", "pinyin": "changzhoubenniu", "tcode": "CZX", "ICAO": "ZSCG"}, {"airport": "\u500d\u52a0\u7682", "city": "\u5927\u540c", "enAirport": "", "match": "\u5927\u540c \u500d\u52a0\u7682|datongbeijiazao|DAT", "pinyin": "datongbeijiazao", "tcode": "DAT", "ICAO": "ZBDT"}, {"airport": "\u6d6a\u5934", "city": "\u4e39\u4e1c", "enAirport": "", "match": "\u4e39\u4e1c \u6d6a\u5934|dandonglangtou|DDG", "pinyin": "dandonglangtou", "tcode": "DDG", "ICAO": "ZYDD"}, {"airport": "\u9999\u683c\u91cc\u62c9", "city": "\u8fea\u5e86", "enAirport": "", "match": "\u8fea\u5e86 \u9999\u683c\u91cc\u62c9|diqingxianggelila|DIG", "pinyin": "diqingxianggelila", "tcode": "DIG", "ICAO": "ZPDQ"}, {"airport": "\u5468\u6c34\u5b50", "city": "\u5927\u8fde", "enAirport": "", "match": "\u5927\u8fde \u5468\u6c34\u5b50|dalianzhoushuizi|DLC", "pinyin": "dalianzhoushuizi", "tcode": "DLC", "ICAO": "ZYTL"}, {"airport": "\u6566\u714c", "city": "\u6566\u714c", "enAirport": "", "match": "\u6566\u714c \u6566\u714c|dunhuang|DNH", "pinyin": "dunhuang", "tcode": "DNH", "ICAO": "ZLDH"}, {"airport": "\u4e1c\u8425", "city": "\u4e1c\u8425", "enAirport": "", "match": "\u4e1c\u8425 \u4e1c\u8425|dongying|DOY", "pinyin": "dongying", "tcode": "DOY", "ICAO": "ZSDY"}, {"airport": "\u8377\u82b1", "city": "\u5f20\u5bb6\u754c", "enAirport": "", "match": "\u5f20\u5bb6\u754c \u8377\u82b1|zhangjiajiehehua|DYG", "pinyin": "zhangjiajiehehua", "tcode": "DYG", "ICAO": "ZGDY"}, {"airport": "\u4e8c\u5341\u91cc\u5821", "city": "\u5ef6\u5b89", "enAirport": "", "match": "\u5ef6\u5b89 \u4e8c\u5341\u91cc\u5821|yananershilibao|ENY", "pinyin": "yananershilibao", "tcode": "ENY", "ICAO": "ZLYA"}, {"airport": "\u4f5b\u5c71", "city": "\u4f5b\u5c71", "enAirport": "", "match": "\u4f5b\u5c71 \u4f5b\u5c71|foshan|FUO", "pinyin": "foshan", "tcode": "FUO", "ICAO": "ZGFS"}, {"airport": "\u52a0\u683c\u8fbe\u5947", "city": "\u52a0\u683c\u8fbe\u5947", "enAirport": "", "match": "\u52a0\u683c\u8fbe\u5947 \u52a0\u683c\u8fbe\u5947|jiagedaqi|JGD", "pinyin": "jiagedaqi", "tcode": "JGD", "ICAO": "ZYJD"}, {"airport": "\u548c\u5e73", "city": "\u65e5\u5580\u5219", "enAirport": "", "match": "\u65e5\u5580\u5219 \u548c\u5e73|rikezeheping|RKZ", "pinyin": "rikezeheping", "tcode": "RKZ", "ICAO": "ZURK"}, {"airport": "\u5929\u5409\u6cf0", "city": "\u5df4\u5f66\u6dd6\u5c14", "enAirport": "", "match": "\u5df4\u5f66\u6dd6\u5c14 \u5929\u5409\u6cf0|bayannaoertianjitai|RLK", "pinyin": "bayannaoertianjitai", "tcode": "RLK", "ICAO": "ZBYZ"}, {"airport": "\u4f0a\u5c14\u65bd", "city": "\u963f\u5c14\u5c71", "enAirport": "", "match": "\u963f\u5c14\u5c71 \u4f0a\u5c14\u65bd|aershanyiershi|YIE", "pinyin": "aershanyiershi", "tcode": "YIE", "ICAO": "ZBES"}, {"airport": "\u5f20\u6396", "city": "\u5f20\u6396", "enAirport": "", "match": "\u5f20\u6396 \u5f20\u6396|zhangye|YZY", "pinyin": "zhangye", "tcode": "YZY", "ICAO": "ZLZY"}, {"airport": "\u66f9\u5bb6\u5821", "city": "\u897f\u5b81", "enAirport": "", "match": "\u897f\u5b81 \u66f9\u5bb6\u5821|xiningcaojiabao|XNN", "pinyin": "xiningcaojiabao", "tcode": "XNN", "ICAO": "ZLXN"}, {"airport": "\u83dc\u575d", "city": "\u5b9c\u5bbe", "enAirport": "", "match": "\u5b9c\u5bbe \u83dc\u575d|yibincaiba|YBP", "pinyin": "yibincaiba", "tcode": "YBP", "ICAO": "ZUYB"}, {"airport": "\u4fdd\u5c71\u4e91\u7aef", "city": "\u4fdd\u5c71", "enAirport": "", "match": "\u4fdd\u5c71 \u4fdd\u5c71\u4e91\u7aef|baoshanyunduan|BSD", "pinyin": "baoshanyunduan", "tcode": "BSD", "ICAO": "ZPBS"}, {"airport": "\u6cb3\u4e1c", "city": "\u94f6\u5ddd", "enAirport": "", "match": "\u94f6\u5ddd \u6cb3\u4e1c|yinchuan|INC", "pinyin": "yinchuan", "tcode": "INC", "ICAO": "ZLIC"}, {"airport": "\u6843\u4ed9", "city": "\u6c88\u9633", "enAirport": "", "match": "\u6c88\u9633 \u6843\u4ed9|shenyangtaoxian|SHE", "pinyin": "shenyangtaoxian", "tcode": "SHE", "ICAO": "ZYTX"}, {"airport": "\u897f\u5173", "city": "\u961c\u9633", "enAirport": "", "match": "\u961c\u9633 \u897f\u5173|fuyangxiguan|FUG", "pinyin": "fuyangxiguan", "tcode": "FUG", "ICAO": "ZSFY"}, {"airport": "\u6d9f\u6c34", "city": "\u6dee\u5b89", "enAirport": "", "match": "\u6dee\u5b89 \u6d9f\u6c34|huaianlianshui|HIA", "pinyin": "huaianlianshui", "tcode": "HIA", "ICAO": "ZSSH"}, {"airport": "\u5174\u51ef\u6e56", "city": "\u9e21\u897f", "enAirport": "", "match": "\u9e21\u897f \u5174\u51ef\u6e56|jixixingkaihu|JXA", "pinyin": "jixixingkaihu", "tcode": "JXA", "ICAO": "ZYJX"}, {"airport": "\u51a0\u8c78\u5c71", "city": "\u8fde\u57ce", "enAirport": "", "match": "\u8fde\u57ce \u51a0\u8c78\u5c71|lianchengguanzhishan|LCX", "pinyin": "lianchengguanzhishan", "tcode": "LCX", "ICAO": "ZSLD"}, {"airport": "\u7c73\u6797", "city": "\u6797\u829d", "enAirport": "", "match": "\u6797\u829d \u7c73\u6797|linzhimilin|LZY", "pinyin": "linzhimilin", "tcode": "LZY", "ICAO": "ZUNZ"}, {"airport": "\u90a3\u62c9\u63d0", "city": "\u90a3\u62c9\u63d0", "enAirport": "", "match": "\u90a3\u62c9\u63d0 \u90a3\u62c9\u63d0|nalati|NLT", "pinyin": "nalati", "tcode": "NLT", "ICAO": "ZWNL"}, {"airport": "\u6986\u9633", "city": "\u6986\u6797", "enAirport": "", "match": "\u6986\u6797 \u6986\u9633|yulinyuyang|UYN", "pinyin": "yulinyuyang", "tcode": "UYN", "ICAO": "ZLYL"}, {"airport": "\u6ee8\u6d77", "city": "\u5929\u6d25", "enAirport": "", "match": "\u5929\u6d25 \u6ee8\u6d77|tianjinbinhai|TSN", "pinyin": "tianjinbinhai", "tcode": "TSN", "ICAO": "ZBTJ"}, {"airport": "\u6cf0\u5dde", "city": "\u626c\u5dde", "enAirport": "", "match": "\u626c\u5dde \u6cf0\u5dde|yangzhoutaizhou|YTY", "pinyin": "yangzhoutaizhou", "tcode": "YTY", "ICAO": "ZSYA"}, {"airport": "\u5580\u4ec0", "city": "\u5580\u4ec0", "enAirport": "", "match": "\u5580\u4ec0 \u5580\u4ec0|keshi|KHG", "pinyin": "keshi", "tcode": "KHG", "ICAO": "ZWSH"}, {"airport": "\u9ad8\u576a", "city": "\u5357\u5145", "enAirport": "", "match": "\u5357\u5145 \u9ad8\u576a|naochonggaoping|NAO", "pinyin": "naochonggaoping", "tcode": "NAO", "ICAO": "ZUNC"}, {"airport": "\u6d41\u4ead", "city": "\u9752\u5c9b", "enAirport": "", "match": "\u9752\u5c9b \u6d41\u4ead|qingdaoliuting|TAO", "pinyin": "qingdaoliuting", "tcode": "TAO", "ICAO": "ZSQD"}, {"airport": "\u9f99\u6e7e", "city": "\u6e29\u5dde", "enAirport": "", "match": "\u6e29\u5dde \u9f99\u6e7e|wenzhouyongqiang|WNZ", "pinyin": "wenzhouyongqiang", "tcode": "WNZ", "ICAO": "ZSWZ"}, {"airport": "\u662d\u901a", "city": "\u662d\u901a", "enAirport": "", "match": "\u662d\u901a \u662d\u901a|zhaotong|ZAT", "pinyin": "zhaotong", "tcode": "ZAT", "ICAO": "ZPZT"}, {"airport": "\u963f\u52d2\u6cf0", "city": "\u963f\u52d2\u6cf0", "enAirport": "", "match": "\u963f\u52d2\u6cf0 \u963f\u52d2\u6cf0|aletai|AAT", "pinyin": "aletai", "tcode": "AAT", "ICAO": "ZWAT"}, {"airport": "\u4e34\u6ca7", "city": "\u4e34\u6ca7", "enAirport": "", "match": "\u4e34\u6ca7 \u4e34\u6ca7|lincang|LNJ", "pinyin": "lincang", "tcode": "LNJ", "ICAO": "ZPLC"}, {"airport": "\u6843\u82b1\u6e90", "city": "\u5e38\u5fb7", "enAirport": "", "match": "\u5e38\u5fb7 \u6843\u82b1\u6e90|changdetaohuayuan|CGD", "pinyin": "changdetaohuayuan", "tcode": "CGD", "ICAO": "ZGCD"}, {"airport": "\u5434\u5729 ", "city": "\u5357\u5b81", "enAirport": "", "match": "\u5357\u5b81 \u5434\u5729 |nanningwuxu|NNG", "pinyin": "nanningwuxu", "tcode": "NNG", "ICAO": "ZGNN"}, {"airport": "\u5e93\u5c14\u52d2", "city": "\u5e93\u5c14\u52d2", "enAirport": "", "match": "\u5e93\u5c14\u52d2 \u5e93\u5c14\u52d2|kuerle|KRL", "pinyin": "kuerle", "tcode": "KRL", "ICAO": "ZWKL"}, {"airport": "\u5b89\u5e86", "city": "\u5b89\u5e86", "enAirport": "", "match": "\u5b89\u5e86 \u5b89\u5e86|anqing|AQG", "pinyin": "anqing", "tcode": "AQG", "ICAO": "ZSAQ"}, {"airport": "\u5854\u57ce", "city": "\u5854\u57ce", "enAirport": "", "match": "\u5854\u57ce \u5854\u57ce|tacheng|TCG", "pinyin": "tacheng", "tcode": "TCG", "ICAO": "ZWTC"}, {"airport": "\u5929\u6cb3", "city": "\u6b66\u6c49", "enAirport": "", "match": "\u6b66\u6c49 \u5929\u6cb3|wuhantianhe|WUH", "pinyin": "wuhantianhe", "tcode": "WUH", "ICAO": "ZHHH"}, {"airport": "\u9752\u5c71", "city": "\u897f\u660c", "enAirport": "", "match": "\u897f\u660c \u9752\u5c71|xichangqingshan|XIC", "pinyin": "xichangqingshan", "tcode": "XIC", "ICAO": "ZUXC"}, {"airport": "\u5357\u6d0b", "city": "\u76d0\u57ce", "enAirport": "", "match": "\u76d0\u57ce \u5357\u6d0b|yanchengnanyang|YNZ", "pinyin": "yanchengnanyang", "tcode": "YNZ", "ICAO": "ZSYN"}, {"airport": "\u957f\u4e50", "city": "\u798f\u5dde", "enAirport": "", "match": "\u798f\u5dde \u957f\u4e50|fuzhouchangle|FOC", "pinyin": "fuzhouchangle", "tcode": "FOC", "ICAO": "ZSFZ"}, {"airport": "\u683c\u5c14\u6728", "city": "\u683c\u5c14\u6728", "enAirport": "", "match": "\u683c\u5c14\u6728 \u683c\u5c14\u6728|geermu|GOQ", "pinyin": "geermu", "tcode": "GOQ", "ICAO": "ZLGM"}, {"airport": "\u9ed1\u6cb3", "city": "\u9ed1\u6cb3", "enAirport": "", "match": "\u9ed1\u6cb3 \u9ed1\u6cb3|heihe|HEK", "pinyin": "heihe", "tcode": "HEK", "ICAO": "ZYHE"}, {"airport": "\u82b7\u6c5f", "city": "\u6000\u5316", "enAirport": "", "match": "\u6000\u5316 \u82b7\u6c5f|huahuazhijiang|HJJ", "pinyin": "huahuazhijiang", "tcode": "HJJ", "ICAO": "ZGCJ"}, {"airport": "\u4e4c\u5170\u6d69\u7279", "city": "\u4e4c\u5170\u6d69\u7279", "enAirport": "", "match": "\u4e4c\u5170\u6d69\u7279 \u4e4c\u5170\u6d69\u7279|wulanhaote|HLH", "pinyin": "wulanhaote", "tcode": "HLH", "ICAO": "ZBUL"}, {"airport": "\u592a\u5e73", "city": "\u54c8\u5c14\u6ee8", "enAirport": "", "match": "\u54c8\u5c14\u6ee8 \u592a\u5e73|haerbintaiping|HRB", "pinyin": "haerbintaiping", "tcode": "HRB", "ICAO": "ZYHB"}, {"airport": "\u897f\u5173", "city": "\u6c49\u4e2d", "enAirport": "", "match": "\u6c49\u4e2d \u897f\u5173|hanzhongxiguan|HZG", "pinyin": "hanzhongxiguan", "tcode": "HZG", "ICAO": "ZLHZ"}, {"airport": "\u4e95\u5188\u5c71", "city": "\u4e95\u5188\u5c71", "enAirport": "", "match": "\u4e95\u5188\u5c71 \u4e95\u5188\u5c71|jinggangshan|JGS", "pinyin": "jinggangshan", "tcode": "JGS", "ICAO": "ZSJA"}, {"airport": "\u5e90\u5c71", "city": "\u4e5d\u6c5f", "enAirport": "", "match": "\u4e5d\u6c5f \u5e90\u5c71|jiujianglushan|JIU", "pinyin": "jiujianglushan", "tcode": "JIU", "ICAO": "ZSJJ"}, {"airport": "\u9ea6\u79ef\u5c71", "city": "\u5929\u6c34", "enAirport": "", "match": "\u5929\u6c34 \u9ea6\u79ef\u5c71|tianshuimaijishan|THQ", "pinyin": "tianshuimaijishan", "tcode": "THQ", "ICAO": "ZLTS"}, {"airport": "\u4ea4\u6cb3", "city": "\u5410\u9c81\u756a", "enAirport": "", "match": "\u5410\u9c81\u756a \u4ea4\u6cb3|tulufanjiaohe|TLQ", "pinyin": "tulufanjiaohe", "tcode": "TLQ", "ICAO": "ZWTP"}, {"airport": "\u4e09\u5973\u6cb3", "city": "\u5510\u5c71", "enAirport": "", "match": "\u5510\u5c71 \u4e09\u5973\u6cb3|tangshansannvhe|TVS", "pinyin": "tangshansannvhe", "tcode": "TVS", "ICAO": "ZBTS"}, {"airport": "\u5df4\u5858", "city": "\u7389\u6811", "enAirport": "", "match": "\u7389\u6811 \u5df4\u5858|yushubatang|YUS", "pinyin": "yushubatang", "tcode": "YUS", "ICAO": "ZLYS"}, {"airport": "\u9999\u5c71", "city": "\u4e2d\u536b", "enAirport": "", "match": "\u4e2d\u536b \u9999\u5c71|zhongweixiangshan|ZHY", "pinyin": "zhongweixiangshan", "tcode": "ZHY", "ICAO": "ZLZW"}, {"airport": "\u666e\u8005\u9ed1", "city": "\u6587\u5c71", "enAirport": "", "match": "\u6587\u5c71 \u666e\u8005\u9ed1|wenshanpuzhehei|WNH", "pinyin": "wenshanpuzhehei", "tcode": "WNH", "ICAO": "ZPWS"}, {"airport": "\u5b9d\u5b89\u8425", "city": "\u6500\u679d\u82b1", "enAirport": "", "match": "\u6500\u679d\u82b1 \u5b9d\u5b89\u8425|panzhihuobaoanying|PZI", "pinyin": "panzhihuobaoanying", "tcode": "PZI", "ICAO": "ZUZH"}, {"airport": "\u5c71\u6d77\u5173", "city": "\u79e6\u7687\u5c9b", "enAirport": "", "match": "\u79e6\u7687\u5c9b \u5c71\u6d77\u5173|qinhuangdaohaiguan|SHP", "pinyin": "qinhuangdaohaiguan", "tcode": "SHP", "ICAO": "ZBSH"}, {"airport": "\u51e4\u51f0", "city": "\u4e09\u4e9a", "enAirport": "", "match": "\u4e09\u4e9a \u51e4\u51f0|sanyafenghuang|SYX", "pinyin": "sanyafenghuang", "tcode": "SYX", "ICAO": "ZJSY"}, {"airport": "\u51e4\u51f0", "city": "\u94dc\u4ec1", "enAirport": "", "match": "\u94dc\u4ec1 \u51e4\u51f0|tongrenfenghuang|TEN", "pinyin": "tongrenfenghuang", "tcode": "TEN", "ICAO": "ZUTR"}, {"airport": "\u9065\u5899", "city": "\u6d4e\u5357", "enAirport": "", "match": "\u6d4e\u5357 \u9065\u5899|jinanyaoqiang|TNA", "pinyin": "jinanyaoqiang", "tcode": "TNA", "ICAO": "ZSJN"}, {"airport": "\u5c6f\u6eaa", "city": "\u9ec4\u5c71", "enAirport": "", "match": "\u9ec4\u5c71 \u5c6f\u6eaa|huangshantunxi|TXN", "pinyin": "huangshantunxi", "tcode": "TXN", "ICAO": "ZSTX"}, {"airport": "\u4e4c\u6d77", "city": "\u4e4c\u6d77", "enAirport": "", "match": "\u4e4c\u6d77 \u4e4c\u6d77|wuhai|WUA", "pinyin": "wuhai", "tcode": "WUA", "ICAO": "ZBUH"}, {"airport": "\u6b66\u5937\u5c71", "city": "\u6b66\u5937\u5c71", "enAirport": "", "match": "\u6b66\u5937\u5c71 \u6b66\u5937\u5c71|wuyishan|WUS", "pinyin": "wuyishan", "tcode": "WUS", "ICAO": "ZSWY"}, {"airport": "\u957f\u5dde\u5c9b", "city": "\u68a7\u5dde", "enAirport": "", "match": "\u68a7\u5dde \u957f\u5dde\u5c9b|wuzhouchangzhoudao|WUZ", "pinyin": "wuzhouchangzhoudao", "tcode": "WUZ", "ICAO": "ZGWZ"}, {"airport": "\u9521\u6797\u6d69\u7279", "city": "\u9521\u6797\u6d69\u7279", "enAirport": "", "match": "\u9521\u6797\u6d69\u7279 \u9521\u6797\u6d69\u7279|xilinhaote|XIL", "pinyin": "xilinhaote", "tcode": "XIL", "ICAO": "ZBXH"}, {"airport": "\u5174\u4e49", "city": "\u5174\u4e49", "enAirport": "", "match": "\u5174\u4e49 \u5174\u4e49|xingyi|ACX", "pinyin": "xingyi", "tcode": "ACX", "ICAO": "ZUYI"}, {"airport": "\u5b89\u5eb7", "city": "\u5b89\u5eb7", "enAirport": "", "match": "\u5b89\u5eb7 \u5b89\u5eb7|ankang|AKA", "pinyin": "ankang", "tcode": "AKA", "ICAO": "ZLAK"}, {"airport": "\u963f\u514b\u82cf", "city": "\u963f\u514b\u82cf", "enAirport": "", "match": "\u963f\u514b\u82cf \u963f\u514b\u82cf|akesu|AKU", "pinyin": "akesu", "tcode": "AKU", "ICAO": "ZWAK"}, {"airport": "\u817e\u9ccc", "city": "\u978d\u5c71", "enAirport": "", "match": "\u978d\u5c71 \u817e\u9ccc|anshantengao|AOG", "pinyin": "anshantengao", "tcode": "AOG", "ICAO": "ZYAS"}, {"airport": "\u9ec4\u679c\u6811", "city": "\u5b89\u987a", "enAirport": "", "match": "\u5b89\u987a \u9ec4\u679c\u6811|anshunhuangguoshu|AVA", "pinyin": "anshunhuangguoshu", "tcode": "AVA", "ICAO": "ZUAS"}, {"airport": "\u4e8c\u91cc\u534a", "city": "\u5305\u5934", "enAirport": "", "match": "\u5305\u5934 \u4e8c\u91cc\u534a|baotouerliban|BAV", "pinyin": "baotouerliban", "tcode": "BAV", "ICAO": "ZBOW"}, {"airport": "\u798f\u6210", "city": "\u5317\u6d77", "enAirport": "", "match": "\u5317\u6d77 \u798f\u6210|beihaifucheng|BHY", "pinyin": "beihaifucheng", "tcode": "BHY", "ICAO": "ZGBH"}, {"airport": "\u660c\u90fd\u90a6\u8fbe", "city": "\u660c\u90fd", "enAirport": "", "match": "\u660c\u90fd \u660c\u90fd\u90a6\u8fbe|changdubangda|BPX", "pinyin": "changdubangda", "tcode": "BPX", "ICAO": "ZUBD"}, {"airport": "\u4e1c\u90ca", "city": "\u4f73\u6728\u65af", "enAirport": "", "match": "\u4f73\u6728\u65af \u4e1c\u90ca|jiamusidongjiao|JMU", "pinyin": "jiamusidongjiao", "tcode": "JMU", "ICAO": "ZYJM"}, {"airport": "\u9ec4\u91d1", "city": "\u8d63\u5dde", "enAirport": "", "match": "\u8d63\u5dde \u9ec4\u91d1|ganzhouhuangjin|KOW", "pinyin": "ganzhouhuangjin", "tcode": "KOW", "ICAO": "ZSGZ"}, {"airport": "\u96f6\u9675", "city": "\u6c38\u5dde", "enAirport": "", "match": "\u6c38\u5dde \u96f6\u9675|yongzhoulingling|LLF", "pinyin": "yongzhoulingling", "tcode": "LLF", "ICAO": "ZGLG"}, {"airport": "\u767d\u5854\u57e0", "city": "\u8fde\u4e91\u6e2f", "enAirport": "", "match": "\u8fde\u4e91\u6e2f \u767d\u5854\u57e0|lianyungangbaita|LYG", "pinyin": "lianyungangbaita", "tcode": "LYG", "ICAO": "ZSLG"}, {"airport": "\u59dc\u8425", "city": "\u5357\u9633", "enAirport": "", "match": "\u5357\u9633 \u59dc\u8425|nanyangjiangying|NNY", "pinyin": "nanyangjiangying", "tcode": "NNY", "ICAO": "ZHNY"}, {"airport": "\u63ed\u9633\u6f6e\u6c55", "city": "\u6c55\u5934", "enAirport": "", "match": "\u6c55\u5934 \u63ed\u9633\u6f6e\u6c55|jieyangchaoshan|SWA", "pinyin": "jieyangchaoshan", "tcode": "SWA", "ICAO": "ZGOW"}, {"airport": "\u6b66\u5bbf", "city": "\u592a\u539f", "enAirport": "", "match": "\u592a\u539f \u6b66\u5bbf|taiyuanwusu|TYN", "pinyin": "taiyuanwusu", "tcode": "TYN", "ICAO": "ZBYN"}, {"airport": "\u6f4d\u574a", "city": "\u6f4d\u574a", "enAirport": "", "match": "\u6f4d\u574a \u6f4d\u574a|weifang|WEF", "pinyin": "weifang", "tcode": "WEF", "ICAO": "ZSWF"}, {"airport": "\u4e94\u6865", "city": "\u4e07\u5dde", "enAirport": "", "match": "\u4e07\u5dde \u4e94\u6865|wanxianwuqiao|WXN", "pinyin": "wanxianwuqiao", "tcode": "WXN", "ICAO": "ZUWX"}, {"airport": "\u9ad8\u5d0e", "city": "\u53a6\u95e8", "enAirport": "", "match": "\u53a6\u95e8 \u9ad8\u5d0e|xiamengaoqi|XMN", "pinyin": "xiamengaoqi", "tcode": "XMN", "ICAO": "ZSAM"}, {"airport": "\u4f0a\u5b81", "city": "\u4f0a\u5b81", "enAirport": "", "match": "\u4f0a\u5b81 \u4f0a\u5b81|yining|YIN", "pinyin": "yining", "tcode": "YIN", "ICAO": "ZWYN"}, {"airport": "\u91d1\u6e7e", "city": "\u73e0\u6d77", "enAirport": "", "match": "\u73e0\u6d77 \u91d1\u6e7e|zhuhaijinwan|ZUH", "pinyin": "zhuhaijinwan", "tcode": "ZUH", "ICAO": "ZGSD"}, {"airport": "\u4e49\u4e4c", "city": "\u4e49\u4e4c", "enAirport": "", "match": "\u4e49\u4e4c \u4e49\u4e4c|yiwu|YIW", "pinyin": "yiwu", "tcode": "YIW", "ICAO": "ZSYW"}, {"airport": "\u671d\u9633", "city": "\u671d\u9633", "enAirport": "", "match": "\u671d\u9633 \u671d\u9633|chaoyang|CHG", "pinyin": "chaoyang", "tcode": "CHG", "ICAO": "ZYCY"}, {"airport": "\u5927\u7406", "city": "\u5927\u7406", "enAirport": "", "match": "\u5927\u7406 \u5927\u7406|dali|DLU", "pinyin": "dali", "tcode": "DLU", "ICAO": "ZPDL"}, {"airport": "\u5609\u5cea\u5173", "city": "\u5609\u5cea\u5173", "enAirport": "", "match": "\u5609\u5cea\u5173 \u5609\u5cea\u5173|jiayuguan|JGN", "pinyin": "jiayuguan", "tcode": "JGN", "ICAO": "ZLJQ"}, {"airport": "\u680e\u793e", "city": "\u5b81\u6ce2", "enAirport": "", "match": "\u5b81\u6ce2 \u680e\u793e|ningbolishe|NGB", "pinyin": "ningbolishe", "tcode": "NGB", "ICAO": "ZSNB"}, {"airport": "\u65b0\u90d1", "city": "\u90d1\u5dde", "enAirport": "", "match": "\u90d1\u5dde \u65b0\u90d1|zhengzhouxinzheng|CGO", "pinyin": "zhengzhouxinzheng", "tcode": "CGO", "ICAO": "ZHCC"}, {"airport": "\u5f20\u5bb6\u53e3", "city": "\u5f20\u5bb6\u53e3", "enAirport": "", "match": "\u5f20\u5bb6\u53e3 \u5f20\u5bb6\u53e3|zhangjiakou|ZQZ", "pinyin": "zhangjiakou", "tcode": "ZQZ", "ICAO": "ZBZJ"}, {"airport": "\u5b9c\u6625\u660e\u6708\u5c71", "city": "\u5b9c\u6625", "enAirport": "", "match": "\u5b9c\u6625 \u5b9c\u6625\u660e\u6708\u5c71|yichun|YIC", "pinyin": "yichun", "tcode": "YIC", "ICAO": "ZSYC"}, {"airport": "\u6bd5\u8282\u98de\u96c4", "city": "\u6bd5\u8282", "enAirport": "", "match": "\u6bd5\u8282 \u6bd5\u8282\u98de\u96c4|bijie|BFJ", "pinyin": "bijie", "tcode": "BFJ", "ICAO": "ZUBJ"}, {"airport": "\u4e5d\u534e\u5c71", "city": "\u6c60\u5dde", "enAirport": "", "match": "\u6c60\u5dde \u4e5d\u534e\u5c71|jiuhuashan|JUH", "pinyin": "jiuhuashan", "tcode": "JUH", "ICAO": "ZSJH"}]